STARLINK-31083          
1 58670U 23211D   26068.39507058 -.00002140  00000+0 -68276-4 0  9995
2 58670  43.0009  86.5899 0001219 263.7661  96.3052 15.27566918122429
FLOCK 4G-24             
1 62637U 25009AE  26068.72509072  .00010513  00000+0  38996-3 0  9991
2 62637  97.4061 151.5140 0001802 280.2808  79.8228 15.27784978 63732
